COSMOS 2433 (720)       
1 32275U 07052A   26074.06413618 -.00000021  00000+0  00000+0 0  9993
2 32275  65.6288 319.1032 0001605 272.4812  87.5640  2.13104285143052
COSMOS 2432 (719)       
1 32276U 07052B   26074.31991677 -.00000020  00000+0  00000+0 0  9997
2 32276  65.6447 319.2205 0010373 332.5582 167.9106  2.13103439143080
COSMOS 2434 (721)       
1 32393U 07065A   26074.28888067  .00000002  00000+0  00000+0 0  9994
2 32393  64.3180 195.0802 0003295  68.3245 354.3984  2.13101392141774
COSMOS 2436 (723)       
1 32395U 07065C   26074.28489109  .00000002  00000+0  00000+0 0  9990
2 32395  64.3267 195.1516 0017392   5.8624 186.4953  2.13100223141722
COSMOS 2456 (730)       
1 36111U 09070A   26074.09105122  .00000057  00000+0  00000+0 0  9997
2 36111  64.9557  74.1805 0006399 306.1491 122.4207  2.13103812126420
COSMOS 2457 (733)       
1 36112U 09070B   26073.05274472  .00000052  00000+0  00000+0 0  9993
2 36112  64.9407  74.0614 0002113 199.4034 280.8951  2.13101225126407
COSMOS 2460 (732)       
1 36402U 10007C   26073.12581627 -.00000024  00000+0  00000+0 0  9998
2 36402  65.4743 317.6854 0001965  24.0874 153.1858  2.13106375124709
COSMOS 2476 (744)       
1 37867U 11064A   26074.21679175  .00000060  00000+0  00000+0 0  9994
2 37867  65.2160  76.0426 0025188 241.7086 191.6717  2.13103968111761
COSMOS 2477 (745)       
1 37868U 11064B   26069.19072576  .00000019  00000+0  00000+0 0  9992
2 37868  65.2195  76.2908 0022274 243.0435 115.1265  2.13102941111649
COSMOS 2475 (743)       
1 37869U 11064C   26073.10229134  .00000056  00000+0  00000+0 0  9994
2 37869  65.2287  76.1793 0028162 254.5882 179.9345  2.13101852111746
COSMOS 2485 (747)       
1 39155U 13019A   26074.05822814  .00000061  00000+0  00000+0 0  9991
2 39155  65.3662  76.7624 0025489 237.2219 122.5718  2.13103306100274
COSMOS 2492 (754)       
1 39620U 14012A   26074.01710874 -.00000018  00000+0  00000+0 0  9993
2 39620  65.3515 317.1388 0013014 327.6394  32.3455  2.13103548 93237
COSMOS 2500 (755)       
1 40001U 14032A   26073.24957203 -.00000022  00000+0  00000+0 0  9998
2 40001  65.2871 316.9197 0005044 197.8366 162.2080  2.13106240 91430
COSMOS 2501 (702K)      
1 40315U 14075A   26073.04100405  .00000000  00000+0  00000+0 0  9990
2 40315  63.6166 193.6632 0020968 206.5488 153.3288  2.13101375 87829
COSMOS 2514 (751)       
1 41330U 16008A   26073.96396829 -.00000016  00000+0  00000+0 0  9992
2 41330  65.0762 316.2426 0009007 206.6509 153.3673  2.13102703 78616
COSMOS 2522 (752)       
1 42939U 17055A   26073.80182468  .00000001  00000+0  00000+0 0  9999
2 42939  64.0785 195.0941 0007632 229.0465 130.8698  2.13101854 65960
COSMOS 2527 (756)       
1 43508U 18053A   26073.29385988  .00000059  00000+0  00000+0 0  9999
2 43508  65.5239  77.0711 0009620 246.0472 113.8919  2.13102379 60250
